<?xml version="1.0" encoding="UTF-8"?>
<ndm xmlns:xsi="http://www.w3.org/2001/XMLSchema-instance" xsi:noNamespaceSchemaLocation="https://sanaregistry.org/r/ndmxml_unqualified/ndmxml-2.0.0-master-2.0.xsd">
<omm id="CCSDS_OMM_VERS" version="2.0">
<header><CREATION_DATE/><ORIGINATOR/></header><body><segment><metadata><OBJECT_NAME>ONEWEB-0233</OBJECT_NAME><OBJECT_ID>2021-045AE</OBJECT_ID><CENTER_NAME>EARTH</CENTER_NAME><REF_FRAME>TEME</REF_FRAME><TIME_SYSTEM>UTC</TIME_SYSTEM><MEAN_ELEMENT_THEORY>SGP4</MEAN_ELEMENT_THEORY></metadata><data><meanElements><EPOCH>2024-12-11T03:49:02.225856</EPOCH><MEAN_MOTION>13.15548054</MEAN_MOTION><ECCENTRICITY>.0001457</ECCENTRICITY><INCLINATION>87.9076</INCLINATION><RA_OF_ASC_NODE>9.3464</RA_OF_ASC_NODE><ARG_OF_PERICENTER>91.0111</ARG_OF_PERICENTER><MEAN_ANOMALY>269.1186</MEAN_ANOMALY></meanElements><tleParameters><EPHEMERIS_TYPE>0</EPHEMERIS_TYPE><CLASSIFICATION_TYPE>U</CLASSIFICATION_TYPE><NORAD_CAT_ID>48795</NORAD_CAT_ID><ELEMENT_SET_NO>999</ELEMENT_SET_NO><REV_AT_EPOCH>17269</REV_AT_EPOCH><BSTAR>.10466E-3</BSTAR><MEAN_MOTION_DOT>.52E-6</MEAN_MOTION_DOT><MEAN_MOTION_DDOT>0</MEAN_MOTION_DDOT></tleParameters></data></segment></body></omm>
<omm id="CCSDS_OMM_VERS" version="2.0">
<header><CREATION_DATE/><ORIGINATOR/></header><body><segment><metadata><OBJECT_NAME>ONEWEB-0190</OBJECT_NAME><OBJECT_ID>2021-045AF</OBJECT_ID><CENTER_NAME>EARTH</CENTER_NAME><REF_FRAME>TEME</REF_FRAME><TIME_SYSTEM>UTC</TIME_SYSTEM><MEAN_ELEMENT_THEORY>SGP4</MEAN_ELEMENT_THEORY></metadata><data><meanElements><EPOCH>2024-12-10T18:22:01.273728</EPOCH><MEAN_MOTION>13.15549057</MEAN_MOTION><ECCENTRICITY>.0001196</ECCENTRICITY><INCLINATION>87.9074</INCLINATION><RA_OF_ASC_NODE>9.3862</RA_OF_ASC_NODE><ARG_OF_PERICENTER>63.4286</ARG_OF_PERICENTER><MEAN_ANOMALY>296.6966</MEAN_ANOMALY></meanElements><tleParameters><EPHEMERIS_TYPE>0</EPHEMERIS_TYPE><CLASSIFICATION_TYPE>U</CLASSIFICATION_TYPE><NORAD_CAT_ID>48796</NORAD_CAT_ID><ELEMENT_SET_NO>999</ELEMENT_SET_NO><REV_AT_EPOCH>17160</REV_AT_EPOCH><BSTAR>.40492E-3</BSTAR><MEAN_MOTION_DOT>.165E-5</MEAN_MOTION_DOT><MEAN_MOTION_DDOT>0</MEAN_MOTION_DDOT></tleParameters></data></segment></body></omm>
<omm id="CCSDS_OMM_VERS" version="2.0">
<header><CREATION_DATE/><ORIGINATOR/></header><body><segment><metadata><OBJECT_NAME>ONEWEB-0236</OBJECT_NAME><OBJECT_ID>2021-045AG</OBJECT_ID><CENTER_NAME>EARTH</CENTER_NAME><REF_FRAME>TEME</REF_FRAME><TIME_SYSTEM>UTC</TIME_SYSTEM><MEAN_ELEMENT_THEORY>SGP4</MEAN_ELEMENT_THEORY></metadata><data><meanElements><EPOCH>2024-12-11T03:54:44.040672</EPOCH><MEAN_MOTION>13.15549362</MEAN_MOTION><ECCENTRICITY>.0001674</ECCENTRICITY><INCLINATION>87.9081</INCLINATION><RA_OF_ASC_NODE>9.3076</RA_OF_ASC_NODE><ARG_OF_PERICENTER>94.2835</ARG_OF_PERICENTER><MEAN_ANOMALY>265.8486</MEAN_ANOMALY></meanElements><tleParameters><EPHEMERIS_TYPE>0</EPHEMERIS_TYPE><CLASSIFICATION_TYPE>U</CLASSIFICATION_TYPE><NORAD_CAT_ID>48797</NORAD_CAT_ID><ELEMENT_SET_NO>999</ELEMENT_SET_NO><REV_AT_EPOCH>17266</REV_AT_EPOCH><BSTAR>-.49782E-5</BSTAR><MEAN_MOTION_DOT>.11E-6</MEAN_MOTION_DOT><MEAN_MOTION_DDOT>0</MEAN_MOTION_DDOT></tleParameters></data></segment></body></omm>
<omm id="CCSDS_OMM_VERS" version="2.0">
<header><CREATION_DATE/><ORIGINATOR/></header><body><segment><metadata><OBJECT_NAME>ONEWEB-0248</OBJECT_NAME><OBJECT_ID>2021-045AH</OBJECT_ID><CENTER_NAME>EARTH</CENTER_NAME><REF_FRAME>TEME</REF_FRAME><TIME_SYSTEM>UTC</TIME_SYSTEM><MEAN_ELEMENT_THEORY>SGP4</MEAN_ELEMENT_THEORY></metadata><data><meanElements><EPOCH>2024-12-10T19:05:21.988896</EPOCH><MEAN_MOTION>13.15548691</MEAN_MOTION><ECCENTRICITY>.0001036</ECCENTRICITY><INCLINATION>87.9068</INCLINATION><RA_OF_ASC_NODE>9.3558</RA_OF_ASC_NODE><ARG_OF_PERICENTER>95.4885</ARG_OF_PERICENTER><MEAN_ANOMALY>264.6363</MEAN_ANOMALY></meanElements><tleParameters><EPHEMERIS_TYPE>0</EPHEMERIS_TYPE><CLASSIFICATION_TYPE>U</CLASSIFICATION_TYPE><NORAD_CAT_ID>48798</NORAD_CAT_ID><ELEMENT_SET_NO>999</ELEMENT_SET_NO><REV_AT_EPOCH>17165</REV_AT_EPOCH><BSTAR>-.29542E-3</BSTAR><MEAN_MOTION_DOT>-.98E-6</MEAN_MOTION_DOT><MEAN_MOTION_DDOT>0</MEAN_MOTION_DDOT></tleParameters></data></segment></body></omm>
<omm id="CCSDS_OMM_VERS" version="2.0">
<header><CREATION_DATE/><ORIGINATOR/></header><body><segment><metadata><OBJECT_NAME>ONEWEB-0225</OBJECT_NAME><OBJECT_ID>2021-045AJ</OBJECT_ID><CENTER_NAME>EARTH</CENTER_NAME><REF_FRAME>TEME</REF_FRAME><TIME_SYSTEM>UTC</TIME_SYSTEM><MEAN_ELEMENT_THEORY>SGP4</MEAN_ELEMENT_THEORY></metadata><data><meanElements><EPOCH>2024-12-11T02:55:24.413376</EPOCH><MEAN_MOTION>13.15549279</MEAN_MOTION><ECCENTRICITY>.0001462</ECCENTRICITY><INCLINATION>87.9073</INCLINATION><RA_OF_ASC_NODE>9.3114</RA_OF_ASC_NODE><ARG_OF_PERICENTER>84.6825</ARG_OF_PERICENTER><MEAN_ANOMALY>275.4472</MEAN_ANOMALY></meanElements><tleParameters><EPHEMERIS_TYPE>0</EPHEMERIS_TYPE><CLASSIFICATION_TYPE>U</CLASSIFICATION_TYPE><NORAD_CAT_ID>48799</NORAD_CAT_ID><ELEMENT_SET_NO>999</ELEMENT_SET_NO><REV_AT_EPOCH>17284</REV_AT_EPOCH><BSTAR>.26382E-3</BSTAR><MEAN_MOTION_DOT>.112E-5</MEAN_MOTION_DOT><MEAN_MOTION_DDOT>0</MEAN_MOTION_DDOT></tleParameters></data></segment></body></omm>
<omm id="CCSDS_OMM_VERS" version="2.0">
<header><CREATION_DATE/><ORIGINATOR/></header><body><segment><metadata><OBJECT_NAME>ONEWEB-0215</OBJECT_NAME><OBJECT_ID>2021-045AK</OBJECT_ID><CENTER_NAME>EARTH</CENTER_NAME><REF_FRAME>TEME</REF_FRAME><TIME_SYSTEM>UTC</TIME_SYSTEM><MEAN_ELEMENT_THEORY>SGP4</MEAN_ELEMENT_THEORY></metadata><data><meanElements><EPOCH>2024-12-11T02:12:03.108096</EPOCH><MEAN_MOTION>13.15549620</MEAN_MOTION><ECCENTRICITY>.0001046</ECCENTRICITY><INCLINATION>87.9068</INCLINATION><RA_OF_ASC_NODE>9.2813</RA_OF_ASC_NODE><ARG_OF_PERICENTER>81.4677</ARG_OF_PERICENTER><MEAN_ANOMALY>278.6572</MEAN_ANOMALY></meanElements><tleParameters><EPHEMERIS_TYPE>0</EPHEMERIS_TYPE><CLASSIFICATION_TYPE>U</CLASSIFICATION_TYPE><NORAD_CAT_ID>48800</NORAD_CAT_ID><ELEMENT_SET_NO>999</ELEMENT_SET_NO><REV_AT_EPOCH>17269</REV_AT_EPOCH><BSTAR>.24298E-5</BSTAR><MEAN_MOTION_DOT>.14E-6</MEAN_MOTION_DOT><MEAN_MOTION_DDOT>0</MEAN_MOTION_DDOT></tleParameters></data></segment></body></omm>
<omm id="CCSDS_OMM_VERS" version="2.0">
<header><CREATION_DATE/><ORIGINATOR/></header><body><segment><metadata><OBJECT_NAME>ONEWEB-0216</OBJECT_NAME><OBJECT_ID>2021-045AL</OBJECT_ID><CENTER_NAME>EARTH</CENTER_NAME><REF_FRAME>TEME</REF_FRAME><TIME_SYSTEM>UTC</TIME_SYSTEM><MEAN_ELEMENT_THEORY>SGP4</MEAN_ELEMENT_THEORY></metadata><data><meanElements><EPOCH>2024-12-10T19:07:38.652960</EPOCH><MEAN_MOTION>13.15546591</MEAN_MOTION><ECCENTRICITY>.0001898</ECCENTRICITY><INCLINATION>87.9068</INCLINATION><RA_OF_ASC_NODE>9.3832</RA_OF_ASC_NODE><ARG_OF_PERICENTER>87.2536</ARG_OF_PERICENTER><MEAN_ANOMALY>272.8811</MEAN_ANOMALY></meanElements><tleParameters><EPHEMERIS_TYPE>0</EPHEMERIS_TYPE><CLASSIFICATION_TYPE>U</CLASSIFICATION_TYPE><NORAD_CAT_ID>48801</NORAD_CAT_ID><ELEMENT_SET_NO>999</ELEMENT_SET_NO><REV_AT_EPOCH>17154</REV_AT_EPOCH><BSTAR>-.29113E-3</BSTAR><MEAN_MOTION_DOT>-.97E-6</MEAN_MOTION_DOT><MEAN_MOTION_DDOT>0</MEAN_MOTION_DDOT></tleParameters></data></segment></body></omm>
<omm id="CCSDS_OMM_VERS" version="2.0">
<header><CREATION_DATE/><ORIGINATOR/></header><body><segment><metadata><OBJECT_NAME>ONEWEB-0239</OBJECT_NAME><OBJECT_ID>2021-045AM</OBJECT_ID><CENTER_NAME>EARTH</CENTER_NAME><REF_FRAME>TEME</REF_FRAME><TIME_SYSTEM>UTC</TIME_SYSTEM><MEAN_ELEMENT_THEORY>SGP4</MEAN_ELEMENT_THEORY></metadata><data><meanElements><EPOCH>2024-12-11T02:32:35.024352</EPOCH><MEAN_MOTION>13.15548292</MEAN_MOTION><ECCENTRICITY>.0000879</ECCENTRICITY><INCLINATION>87.9077</INCLINATION><RA_OF_ASC_NODE>9.3130</RA_OF_ASC_NODE><ARG_OF_PERICENTER>94.5429</ARG_OF_PERICENTER><MEAN_ANOMALY>265.5802</MEAN_ANOMALY></meanElements><tleParameters><EPHEMERIS_TYPE>0</EPHEMERIS_TYPE><CLASSIFICATION_TYPE>U</CLASSIFICATION_TYPE><NORAD_CAT_ID>48802</NORAD_CAT_ID><ELEMENT_SET_NO>999</ELEMENT_SET_NO><REV_AT_EPOCH>17276</REV_AT_EPOCH><BSTAR>-.11439E-3</BSTAR><MEAN_MOTION_DOT>-.3E-6</MEAN_MOTION_DOT><MEAN_MOTION_DDOT>0</MEAN_MOTION_DDOT></tleParameters></data></segment></body></omm>

</ndm>
