48795,ONEWEB-0233,2021,109.46,148.0,+,87.91,Active,1,LEO,Russia,UK,Commercial,Communications,Soyuz,1 48795U 21045AE  24346.15905354  .00000052  00000+0  10466-3 0  9992,2 48795  87.9076   9.3464 0001457  91.0111 269.1186 13.15548054172692,13.15548054,0.0001457,LEO
48796,ONEWEB-0190,2021,109.46,148.0,+,87.91,Active,1,LEO,Russia,UK,Commercial,Communications,Soyuz,1 48796U 21045AF  24345.76529252  .00000165  00000+0  40492-3 0  9995,2 48796  87.9074   9.3862 0001196  63.4286 296.6966 13.15549057171604,13.15549057,0.0001196,LEO
48797,ONEWEB-0236,2021,109.46,148.0,+,87.91,Active,1,LEO,Russia,UK,Commercial,Communications,Soyuz,1 48797U 21045AG  24346.16300973  .00000011  00000+0 -49782-5 0  9992,2 48797  87.9081   9.3076 0001674  94.2835 265.8486 13.15549362172664,13.15549362,0.0001674,LEO
48798,ONEWEB-0248,2021,109.46,148.0,+,87.91,Active,1,LEO,Russia,UK,Commercial,Communications,Soyuz,1 48798U 21045AH  24345.79539339 -.00000098  00000+0 -29542-3 0  9997,2 48798  87.9068   9.3558 0001036  95.4885 264.6363 13.15548691171658,13.15548691,0.0001036,LEO
48799,ONEWEB-0225,2021,109.46,148.0,+,87.91,Active,1,LEO,Russia,UK,Commercial,Communications,Soyuz,1 48799U 21045AJ  24346.12181034  .00000112  00000+0  26382-3 0  9995,2 48799  87.9073   9.3114 0001462  84.6825 275.4472 13.15549279172846,13.15549279,0.0001462,LEO
48800,ONEWEB-0215,2021,109.46,148.0,+,87.91,Active,1,LEO,Russia,UK,Commercial,Communications,Soyuz,1 48800U 21045AK  24346.09170264  .00000014  00000+0  24298-5 0  9994,2 48800  87.9068   9.2813 0001046  81.4677 278.6572 13.15549620172695,13.1554962,0.0001046,LEO
48801,ONEWEB-0216,2021,109.46,148.0,+,87.91,Active,1,LEO,Russia,UK,Commercial,Communications,Soyuz,1 48801U 21045AL  24345.79697515 -.00000097  00000+0 -29113-3 0  9996,2 48801  87.9068   9.3832 0001898  87.2536 272.8811 13.15546591171540,13.15546591,0.0001898,LEO
48802,ONEWEB-0239,2021,109.46,148.0,+,87.91,Active,1,LEO,Russia,UK,Commercial,Communications,Soyuz,1 48802U 21045AM  24346.10596093 -.00000030  00000+0 -11439-3 0  9991,2 48802  87.9077   9.3130 0000879  94.5429 265.5802 13.15548292172766,13.15548292,8.79e-05,LEO
